[{"OBJECT_NAME":"ONEWEB-0018","OBJECT_ID":"2020-020L","EPOCH":"2025-08-03T14:15:59.438880","MEAN_MOTION":13.11418139,"ECCENTRICITY":0.0001738,"INCLINATION":87.8804,"RA_OF_ASC_NODE":84.3612,"ARG_OF_PERICENTER":79.9794,"MEAN_ANOMALY":280.153,"EPHEMERIS_TYPE":0,"CLASSIFICATION_TYPE":"U","NORAD_CAT_ID":45434,"ELEMENT_SET_NO":999,"REV_AT_EPOCH":26100,"BSTAR":-0.0016114,"MEAN_MOTION_DOT":-5.58e-6,"MEAN_MOTION_DDOT":0},{"OBJECT_NAME":"ONEWEB-0083","OBJECT_ID":"2020-020M","EPOCH":"2025-08-03T14:01:20.235936","MEAN_MOTION":13.1141695,"ECCENTRICITY":0.0001722,"INCLINATION":87.8811,"RA_OF_ASC_NODE":84.3496,"ARG_OF_PERICENTER":80.2763,"MEAN_ANOMALY":279.856,"EPHEMERIS_TYPE":0,"CLASSIFICATION_TYPE":"U","NORAD_CAT_ID":45435,"ELEMENT_SET_NO":999,"REV_AT_EPOCH":26104,"BSTAR":-0.0015913,"MEAN_MOTION_DOT":-5.51e-6,"MEAN_MOTION_DDOT":0},{"OBJECT_NAME":"ONEWEB-0095","OBJECT_ID":"2020-020N","EPOCH":"2025-08-03T04:39:58.269024","MEAN_MOTION":13.11417666,"ECCENTRICITY":0.000112,"INCLINATION":87.8798,"RA_OF_ASC_NODE":84.4514,"ARG_OF_PERICENTER":97.7204,"MEAN_ANOMALY":262.4051,"EPHEMERIS_TYPE":0,"CLASSIFICATION_TYPE":"U","NORAD_CAT_ID":45436,"ELEMENT_SET_NO":999,"REV_AT_EPOCH":26099,"BSTAR":-0.0011183,"MEAN_MOTION_DOT":-3.84e-6,"MEAN_MOTION_DDOT":0},{"OBJECT_NAME":"ONEWEB-0092","OBJECT_ID":"2020-020P","EPOCH":"2025-08-03T03:59:31.423488","MEAN_MOTION":13.1141864,"ECCENTRICITY":0.0001586,"INCLINATION":87.8807,"RA_OF_ASC_NODE":84.4448,"ARG_OF_PERICENTER":85.1954,"MEAN_ANOMALY":274.9355,"EPHEMERIS_TYPE":0,"CLASSIFICATION_TYPE":"U","NORAD_CAT_ID":45437,"ELEMENT_SET_NO":999,"REV_AT_EPOCH":26110,"BSTAR":0.0017614,"MEAN_MOTION_DOT":6.37e-6,"MEAN_MOTION_DDOT":0},{"OBJECT_NAME":"ONEWEB-0085","OBJECT_ID":"2020-020Q","EPOCH":"2025-08-03T04:41:01.253760","MEAN_MOTION":13.11415172,"ECCENTRICITY":0.0001625,"INCLINATION":87.8801,"RA_OF_ASC_NODE":84.4515,"ARG_OF_PERICENTER":86.7677,"MEAN_ANOMALY":273.3636,"EPHEMERIS_TYPE":0,"CLASSIFICATION_TYPE":"U","NORAD_CAT_ID":45438,"ELEMENT_SET_NO":999,"REV_AT_EPOCH":26099,"BSTAR":-0.0013901,"MEAN_MOTION_DOT":-4.8e-6,"MEAN_MOTION_DDOT":0},{"OBJECT_NAME":"ONEWEB-0096","OBJECT_ID":"2020-020R","EPOCH":"2025-08-03T14:03:46.492992","MEAN_MOTION":13.11415767,"ECCENTRICITY":0.0001946,"INCLINATION":87.8814,"RA_OF_ASC_NODE":84.3409,"ARG_OF_PERICENTER":81.4812,"MEAN_ANOMALY":278.6537,"EPHEMERIS_TYPE":0,"CLASSIFICATION_TYPE":"U","NORAD_CAT_ID":45439,"ELEMENT_SET_NO":999,"REV_AT_EPOCH":26103,"BSTAR":-0.0018624,"MEAN_MOTION_DOT":-6.47e-6,"MEAN_MOTION_DDOT":0},{"OBJECT_NAME":"ONEWEB-0037","OBJECT_ID":"2020-020S","EPOCH":"2025-08-03T09:55:59.507616","MEAN_MOTION":13.1141478,"ECCENTRICITY":0.0001655,"INCLINATION":87.8816,"RA_OF_ASC_NODE":84.3398,"ARG_OF_PERICENTER":85.611,"MEAN_ANOMALY":274.5207,"EPHEMERIS_TYPE":0,"CLASSIFICATION_TYPE":"U","NORAD_CAT_ID":45440,"ELEMENT_SET_NO":999,"REV_AT_EPOCH":26104,"BSTAR":0.0001381,"MEAN_MOTION_DOT":6.2e-7,"MEAN_MOTION_DDOT":0},{"OBJECT_NAME":"ONEWEB-0042","OBJECT_ID":"2020-020T","EPOCH":"2025-08-03T10:09:10.847808","MEAN_MOTION":13.11418657,"ECCENTRICITY":0.0001821,"INCLINATION":87.8811,"RA_OF_ASC_NODE":84.3821,"ARG_OF_PERICENTER":80.9526,"MEAN_ANOMALY":279.1808,"EPHEMERIS_TYPE":0,"CLASSIFICATION_TYPE":"U","NORAD_CAT_ID":45441,"ELEMENT_SET_NO":999,"REV_AT_EPOCH":26101,"BSTAR":-0.0010425,"MEAN_MOTION_DOT":-3.57e-6,"MEAN_MOTION_DDOT":0},{"OBJECT_NAME":"ONEWEB-0098","OBJECT_ID":"2020-020U","EPOCH":"2025-08-03T04:33:42.085152","MEAN_MOTION":13.11414002,"ECCENTRICITY":0.0001802,"INCLINATION":87.8811,"RA_OF_ASC_NODE":84.4388,"ARG_OF_PERICENTER":68.7658,"MEAN_ANOMALY":291.3662,"EPHEMERIS_TYPE":0,"CLASSIFICATION_TYPE":"U","NORAD_CAT_ID":45442,"ELEMENT_SET_NO":999,"REV_AT_EPOCH":26096,"BSTAR":-0.00076436,"MEAN_MOTION_DOT":-2.58e-6,"MEAN_MOTION_DDOT":0},{"OBJECT_NAME":"ONEWEB-0055","OBJECT_ID":"2020-020V","EPOCH":"2025-08-03T15:08:30.300864","MEAN_MOTION":13.11416383,"ECCENTRICITY":0.0001745,"INCLINATION":87.8798,"RA_OF_ASC_NODE":84.3539,"ARG_OF_PERICENTER":78.0821,"MEAN_ANOMALY":282.0502,"EPHEMERIS_TYPE":0,"CLASSIFICATION_TYPE":"U","NORAD_CAT_ID":45443,"ELEMENT_SET_NO":999,"REV_AT_EPOCH":26099,"BSTAR":0.0013329,"MEAN_MOTION_DOT":4.85e-6,"MEAN_MOTION_DDOT":0},{"OBJECT_NAME":"ONEWEB-0093","OBJECT_ID":"2020-020W","EPOCH":"2025-08-03T14:33:17.610912","MEAN_MOTION":13.11418327,"ECCENTRICITY":0.0002079,"INCLINATION":87.8808,"RA_OF_ASC_NODE":84.3427,"ARG_OF_PERICENTER":91.4318,"MEAN_ANOMALY":268.7048,"EPHEMERIS_TYPE":0,"CLASSIFICATION_TYPE":"U","NORAD_CAT_ID":45444,"ELEMENT_SET_NO":999,"REV_AT_EPOCH":26105,"BSTAR":-7.9968e-5,"MEAN_MOTION_DOT":-1.6e-7,"MEAN_MOTION_DDOT":0},{"OBJECT_NAME":"ONEWEB-0029","OBJECT_ID":"2020-020X","EPOCH":"2025-08-03T03:57:05.556096","MEAN_MOTION":13.11417708,"ECCENTRICITY":0.0001922,"INCLINATION":87.8804,"RA_OF_ASC_NODE":84.4437,"ARG_OF_PERICENTER":80.4362,"MEAN_ANOMALY":279.6983,"EPHEMERIS_TYPE":0,"CLASSIFICATION_TYPE":"U","NORAD_CAT_ID":45445,"ELEMENT_SET_NO":999,"REV_AT_EPOCH":26097,"BSTAR":0.001444,"MEAN_MOTION_DOT":5.25e-6,"MEAN_MOTION_DDOT":0},{"OBJECT_NAME":"ONEWEB-0068","OBJECT_ID":"2020-020Y","EPOCH":"2025-08-03T10:53:09.102912","MEAN_MOTION":13.11419917,"ECCENTRICITY":0.0001927,"INCLINATION":87.8808,"RA_OF_ASC_NODE":84.3744,"ARG_OF_PERICENTER":81.9316,"MEAN_ANOMALY":278.203,"EPHEMERIS_TYPE":0,"CLASSIFICATION_TYPE":"U","NORAD_CAT_ID":45446,"ELEMENT_SET_NO":999,"REV_AT_EPOCH":26095,"BSTAR":0.00021157,"MEAN_MOTION_DOT":8.8e-7,"MEAN_MOTION_DDOT":0},{"OBJECT_NAME":"ONEWEB-0046","OBJECT_ID":"2020-020Z","EPOCH":"2025-08-03T14:20:52.664064","MEAN_MOTION":13.11417796,"ECCENTRICITY":0.0001788,"INCLINATION":87.8813,"RA_OF_ASC_NODE":84.3547,"ARG_OF_PERICENTER":89.1531,"MEAN_ANOMALY":270.9802,"EPHEMERIS_TYPE":0,"CLASSIFICATION_TYPE":"U","NORAD_CAT_ID":45447,"ELEMENT_SET_NO":999,"REV_AT_EPOCH":26098,"BSTAR":-0.0010226,"MEAN_MOTION_DOT":-3.5e-6,"MEAN_MOTION_DDOT":0},{"OBJECT_NAME":"ONEWEB-0063","OBJECT_ID":"2020-020AA","EPOCH":"2025-08-03T04:03:11.439360","MEAN_MOTION":13.1141696,"ECCENTRICITY":0.0001589,"INCLINATION":87.8807,"RA_OF_ASC_NODE":84.4395,"ARG_OF_PERICENTER":86.3264,"MEAN_ANOMALY":273.8046,"EPHEMERIS_TYPE":0,"CLASSIFICATION_TYPE":"U","NORAD_CAT_ID":45448,"ELEMENT_SET_NO":999,"REV_AT_EPOCH":26101,"BSTAR":0.0015405,"MEAN_MOTION_DOT":5.59e-6,"MEAN_MOTION_DDOT":0},{"OBJECT_NAME":"ONEWEB-0019","OBJECT_ID":"2020-020AB","EPOCH":"2025-08-03T14:24:31.963680","MEAN_MOTION":13.11418325,"ECCENTRICITY":0.0001832,"INCLINATION":87.8795,"RA_OF_ASC_NODE":84.3729,"ARG_OF_PERICENTER":78.4356,"MEAN_ANOMALY":281.6977,"EPHEMERIS_TYPE":0,"CLASSIFICATION_TYPE":"U","NORAD_CAT_ID":45449,"ELEMENT_SET_NO":999,"REV_AT_EPOCH":26091,"BSTAR":-0.0013181,"MEAN_MOTION_DOT":-4.54e-6,"MEAN_MOTION_DDOT":0},{"OBJECT_NAME":"ONEWEB-0094","OBJECT_ID":"2020-020AC","EPOCH":"2025-08-03T09:53:55.582368","MEAN_MOTION":13.176476,"ECCENTRICITY":0.0001828,"INCLINATION":87.9034,"RA_OF_ASC_NODE":69.0794,"ARG_OF_PERICENTER":86.5545,"MEAN_ANOMALY":273.5796,"EPHEMERIS_TYPE":0,"CLASSIFICATION_TYPE":"U","NORAD_CAT_ID":45450,"ELEMENT_SET_NO":999,"REV_AT_EPOCH":26446,"BSTAR":-3.3433e-5,"MEAN_MOTION_DOT":0,"MEAN_MOTION_DDOT":0},{"OBJECT_NAME":"ONEWEB-0087","OBJECT_ID":"2020-020AD","EPOCH":"2025-08-03T09:47:14.375328","MEAN_MOTION":13.11416286,"ECCENTRICITY":0.0001969,"INCLINATION":87.8801,"RA_OF_ASC_NODE":84.3421,"ARG_OF_PERICENTER":84.7038,"MEAN_ANOMALY":275.4314,"EPHEMERIS_TYPE":0,"CLASSIFICATION_TYPE":"U","NORAD_CAT_ID":45451,"ELEMENT_SET_NO":999,"REV_AT_EPOCH":26093,"BSTAR":0.00088513,"MEAN_MOTION_DOT":3.26e-6,"MEAN_MOTION_DDOT":0},{"OBJECT_NAME":"ONEWEB-0082","OBJECT_ID":"2020-020AE","EPOCH":"2025-08-03T13:22:17.915520","MEAN_MOTION":13.1141617,"ECCENTRICITY":0.0001888,"INCLINATION":87.8801,"RA_OF_ASC_NODE":84.3371,"ARG_OF_PERICENTER":79.6584,"MEAN_ANOMALY":280.4756,"EPHEMERIS_TYPE":0,"CLASSIFICATION_TYPE":"U","NORAD_CAT_ID":45452,"ELEMENT_SET_NO":999,"REV_AT_EPOCH":26104,"BSTAR":0.0013992,"MEAN_MOTION_DOT":5.09e-6,"MEAN_MOTION_DDOT":0},{"OBJECT_NAME":"ONEWEB-0050","OBJECT_ID":"2020-020AF","EPOCH":"2025-08-03T05:39:24.885216","MEAN_MOTION":14.9088886,"ECCENTRICITY":0.000453,"INCLINATION":87.9972,"RA_OF_ASC_NODE":283.4128,"ARG_OF_PERICENTER":67.1718,"MEAN_ANOMALY":292.9988,"EPHEMERIS_TYPE":0,"CLASSIFICATION_TYPE":"U","NORAD_CAT_ID":45453,"ELEMENT_SET_NO":999,"REV_AT_EPOCH":29304,"BSTAR":0.00024641,"MEAN_MOTION_DOT":2.453e-5,"MEAN_MOTION_DDOT":0},{"OBJECT_NAME":"ONEWEB-0034","OBJECT_ID":"2020-020AG","EPOCH":"2025-08-03T04:43:27.576480","MEAN_MOTION":13.11414673,"ECCENTRICITY":0.0001816,"INCLINATION":87.8811,"RA_OF_ASC_NODE":84.4286,"ARG_OF_PERICENTER":79.301,"MEAN_ANOMALY":280.8323,"EPHEMERIS_TYPE":0,"CLASSIFICATION_TYPE":"U","NORAD_CAT_ID":45454,"ELEMENT_SET_NO":999,"REV_AT_EPOCH":26092,"BSTAR":-0.0013724,"MEAN_MOTION_DOT":-4.74e-6,"MEAN_MOTION_DDOT":0},{"OBJECT_NAME":"ONEWEB-0060","OBJECT_ID":"2020-020AH","EPOCH":"2025-08-03T04:01:59.234880","MEAN_MOTION":13.11414125,"ECCENTRICITY":0.0002939,"INCLINATION":87.8804,"RA_OF_ASC_NODE":84.4641,"ARG_OF_PERICENTER":79.5282,"MEAN_ANOMALY":280.6177,"EPHEMERIS_TYPE":0,"CLASSIFICATION_TYPE":"U","NORAD_CAT_ID":45455,"ELEMENT_SET_NO":999,"REV_AT_EPOCH":26086,"BSTAR":0.0015794,"MEAN_MOTION_DOT":5.72e-6,"MEAN_MOTION_DDOT":0},{"OBJECT_NAME":"ONEWEB-0086","OBJECT_ID":"2020-020AJ","EPOCH":"2025-08-03T14:30:40.552992","MEAN_MOTION":13.11418211,"ECCENTRICITY":0.0002375,"INCLINATION":87.8809,"RA_OF_ASC_NODE":84.3453,"ARG_OF_PERICENTER":68.0582,"MEAN_ANOMALY":292.0799,"EPHEMERIS_TYPE":0,"CLASSIFICATION_TYPE":"U","NORAD_CAT_ID":45456,"ELEMENT_SET_NO":999,"REV_AT_EPOCH":26098,"BSTAR":-0.00036462,"MEAN_MOTION_DOT":-1.17e-6,"MEAN_MOTION_DDOT":0},{"OBJECT_NAME":"ONEWEB-0088","OBJECT_ID":"2020-020AK","EPOCH":"2025-08-03T04:49:33.262752","MEAN_MOTION":13.11416024,"ECCENTRICITY":0.000184,"INCLINATION":87.8805,"RA_OF_ASC_NODE":84.3725,"ARG_OF_PERICENTER":83.9532,"MEAN_ANOMALY":276.1806,"EPHEMERIS_TYPE":0,"CLASSIFICATION_TYPE":"U","NORAD_CAT_ID":45457,"ELEMENT_SET_NO":999,"REV_AT_EPOCH":26086,"BSTAR":-0.0021858,"MEAN_MOTION_DOT":-7.62e-6,"MEAN_MOTION_DDOT":0}]
